LEDSAT                  
1 49069U 21073D   24277.14494258  .00069089  00000+0  22685-2 0  9996
2 49069  97.4266 347.9129 0016050 258.9181 101.0256 15.31197119172930
XW-3 (CAS-9)            
1 50466U 21131B   24277.53564328  .00003741  00000+0  12005-2 0  9991
2 50466  98.5245   2.0997 0004789 151.7504 208.3945 14.40026893145596
GREENCUBE               
1 53106U 22080B   24276.98423469 -.00000003  00000+0  00000+0 0  9995
2 53106  70.1390 155.0791 0008198  82.9195 277.2397  6.42557526 52191
CAS-5A (FO-118)         
1 54684U 22167C   24277.56193208  .00098595  00000+0  23196-2 0  9999
2 54684  97.6157  65.7966 0007238 129.2875 230.9014 15.41573083100925
STRATOSAT-TK 1 (RS52S)  
1 57167U 23091B   24277.55392496  .00046591  00000+0  22664-2 0  9992
2 57167  97.5983 330.6400 0015201 107.1369 253.1530 15.18141107 69969
UMKA 1 (RS40S)          
1 57172U 23091G   24277.51962707  .00016547  00000+0  10236-2 0  9992
2 57172  97.5991 328.5464 0017688 110.7803 249.5323 15.09768939 69826
CUBESX-HSE 3 (RS42S)    
1 57178U 23091N   24277.54837474  .00024420  00000+0  14140-2 0  9990
2 57178  97.6029 329.3409 0017892 105.0249 255.2963 15.12077544 69868
MONITOR-4 (RS57S)       
1 57182U 23091S   24277.37838697  .00021638  00000+0  12794-2 0  9995
2 57182  97.6012 328.8814 0018086 106.7505 253.5711 15.11345436 69823
MONITOR-2 (RS39S)       
1 57184U 23091U   24277.55128715  .00014791  00000+0  92125-3 0  9999
2 57184  97.6026 328.9929 0015292 100.7381 259.5571 15.09576538 69848
SVYATOBOR 1 (RS60S)     
1 57187U 23091X   24277.57319125  .00021299  00000+0  12426-2 0  9997
2 57187  97.6020 329.7384 0014375  97.8904 262.3958 15.11884591 69897
VIZARD-METEO (RS38S)    
1 57189U 23091Z   24277.54124858  .00027269  00000+0  14998-2 0  9992
2 57189  97.6015 330.3491 0013386  95.4123 264.8636 15.13960713 69936
NANOZOND 1 (RS49S)      
1 57190U 23091AA  24277.51281410  .00039784  00000+0  19399-2 0  9994
2 57190  97.5983 331.3052 0011222  99.0138 261.2366 15.18145512 70006
POLYTECH-UNIVERSE 3 (R*)
1 57191U 23091AB  24277.55842258  .00015662  00000+0  97323-3 0  9995
2 57191  97.5991 328.6318 0020263 116.4779 243.8531 15.09574413 69835
UTMN 2 (RS27S)          
1 57203U 23091AP  24277.44271182  .00024797  00000+0  13938-2 0  9997
2 57203  97.6012 330.0158 0013572  96.0897 264.1881 15.13201444 69900
ARCCUBE 1 (RS25S)       
1 57205U 23091AR  24277.31716689  .00047266  00000+0  21658-2 0  9995
2 57205  97.5947 331.4201 0011029 100.3286 259.9192 15.20258514 70006
KUZGTU 1 (RS47S)        
1 57217U 23091AV  24277.57006024  .00024708  00000+0  14406-2 0  9990
2 57217  97.5998 329.1622 0017657 106.2134 254.1041 15.11830285 69869
HADES-D (SO-121)        
1 58567U 23174CY  24277.48745432  .00332050  00000+0  44700-2 0  9996
2 58567  97.4380 355.0230 0009919 216.0798 143.9789 15.56673750 50442
OOV-CUBE (TUBSAT-30)    
1 60240U 24128F   24277.24251048  .00010296  00000+0  89568-3 0  9993
2 60240  61.9976 226.6200 0017605 339.0356  21.0009 14.97315847 12787
CUTE-1 (CO-55)          
1 27844U 03031E   24277.55614891  .00002185  00000+0  97934-3 0  9993
2 27844  98.6801 283.1048 0009551 183.1829 176.9290 14.23510526103206
CUBESAT XI-IV (CO-57)   
1 27848U 03031J   24276.97148144  .00001840  00000+0  83714-3 0  9993
2 27848  98.6828 282.7089 0009083 201.7074 158.3720 14.22915235102866
CUBESAT XI-V            
1 28895U 05043F   24277.33182110  .00008232  00000+0  14174-2 0  9998
2 28895  98.2169  53.4723 0015371  19.2416 340.9366 14.68743345 10325
CUTE-1.7+APD II (CO-65) 
1 32785U 08021C   24276.85046757  .00023678  00000+0  19545-2 0  9990
2 32785  97.7665 241.4879 0008883 342.9839  17.1084 14.98954042891664
AAUSAT-II               
1 32788U 08021F   24277.51819276  .00073281  00000+0  27934-2 0  9997
2 32788  97.6012 258.7168 0007961 121.9055 238.2958 15.26379544894798
CANX-2                  
1 32790U 08021H   24276.63090255  .00017604  00000+0  15256-2 0  9991
2 32790  97.7788 239.9182 0010963 347.0064  13.0873 14.97116615891434
SEEDS II (CO-66)        
1 32791U 08021J   24275.88103586  .00029772  00000+0  19540-2 0  9999
2 32791  97.7012 246.7623 0003280 343.2926  16.8193 15.07590838892656
SWISSCUBE               
1 35932U 09051B   24277.42399797  .00006661  00000+0  14037-2 0  9994
2 35932  98.4531 162.8526 0007192 356.3043   3.8102 14.59774448798345
BEESAT-1                
1 35933U 09051C   24277.58868349  .00005841  00000+0  12422-2 0  9991
2 35933  98.4459 163.7819 0005869  11.2144 348.9185 14.59414595798436
ITUPSAT1                
1 35935U 09051E   24277.40802396  .00005394  00000+0  11753-2 0  9993
2 35935  98.4558 163.3219 0008254  14.5018 345.6416 14.58317985798036
TISAT 1                 
1 36799U 10035E   24277.45510549  .00029456  00000+0  20145-2 0  9997
2 36799  98.0731 171.7388 0002601 195.5309 164.5837 15.06070394773332
AEROCUBE 4.5A           
1 38767U 12048K   24277.48931096  .00035462  00000+0  16026-2 0  9994
2 38767  64.6593 324.7791 0112333 342.4390  17.2860 15.15225218276840
AEROCUBE 4.5B           
1 38768U 12048L   24277.21150391  .00126374  00000+0  30008-2 0  9996
2 38768  64.6498 241.3443 0082724 330.0292  29.6119 15.37486138277958
STRAND-1                
1 39090U 13009E   24277.47317963  .00002262  00000+0  78770-3 0  9999
2 39090  98.3813 102.8048 0007845 292.5618  67.4738 14.36320506607788
BRITE-AUSTRIA           
1 39091U 13009F   24277.47199355  .00001525  00000+0  53972-3 0  9991
2 39091  98.3861 102.0790 0009333 300.1545  59.8716 14.35973903607805
NEE-01 PEGASO           
1 39151U 13018B   24277.59223038  .00011722  00000+0  13014-2 0  9999
2 39151  98.0480  35.9315 0014869  49.0461 311.2039 14.87301427618076
ESTCUBE 1               
1 39161U 13021C   24277.40645263  .00008539  00000+0  12044-2 0  9996
2 39161  97.8179 340.5812 0007866 233.4038 126.6450 14.77441114613060
POPACS 1                
1 39268U 13055D   24277.59629699  .00077715  14174-6  11589-2 0  9995
2 39268  80.9823  25.7823 0362117 101.3066 262.9069 15.04970556576761
POPACS 2                
1 39269U 13055E   24277.28176602  .00030714  00000+0  68131-3 0  9993
2 39269  80.9963 121.6388 0530422 352.2137   7.1047 14.61996715571364
POPACS 3                
1 39270U 13055F   24276.99752770  .00023198  00000+0  61825-3 0  9999
2 39270  81.0097 176.2967 0615913 144.9361 219.4050 14.40140223548468
ZACUBE-1 (TSHEPISOSAT)  
1 39417U 13066B   24277.42912305  .00015467  00000+0  15174-2 0  9990
2 39417  97.7460 231.1691 0049421 159.1826 201.1420 14.91371683587704
WNISAT-1                
1 39423U 13066H   24277.50005268  .00003911  00000+0  74335-3 0  9993
2 39423  97.6682 103.0819 0169259  29.4839 331.5777 14.55841388576198
TRITON-1                
1 39427U 13066M   24277.54101365  .00011092  00000+0  15012-2 0  9991
2 39427  97.8365 192.1013 0102386  92.7321 268.5613 14.75516963582188
DELFI-N3XT              
1 39428U 13066N   24277.48637993  .00020841  00000+0  24794-2 0  9995
2 39428  97.8328 193.1187 0098866  96.5700 264.6779 14.80903429582106
GOMX-1                  
1 39430U 13066Q   24277.60590700  .00009047  00000+0  14705-2 0  9992
2 39430  97.7132 145.4032 0135990 267.9393  90.6234 14.65286100578732
CUBEBUG-2 (LO-74)       
1 39440U 13066AA  24277.58759788  .00017059  00000+0  19115-2 0  9995
2 39440  97.8202 219.0711 0065112 279.9708  79.4163 14.85354729584418
NEE-02 KRYSAOR          
1 39441U 13066AB  24277.36261764  .00011105  00000+0  13626-2 0  9991
2 39441  97.8284 214.2647 0071024 305.0625  54.3939 14.81463090583940
FUNCUBE-1 (AO-73)       
1 39444U 13066AE  24277.42839661  .00020322  00000+0  18245-2 0  9991
2 39444  97.7312 234.6139 0047545 137.9334 222.5552 14.94868724586261
UWE-3                   
1 39446U 13066AG  24277.39142469  .00013753  00000+0  14540-2 0  9996
2 39446  97.7905 224.9960 0056532 221.9423 137.7458 14.88134213584783
BRITE-CA1 (TORONTO)     
1 40020U 14033L   24277.61035487  .00006640  00000+0  10534-2 0  9993
2 40020  97.8936  51.0543 0083213 105.7712 255.2690 14.70151144550791
DUCHIFAT-1              
1 40021U 14033M   24277.54883809  .00038786  00000+0  22269-2 0  9999
2 40021  98.0983 267.3587 0015272  93.2476 267.0500 15.12316921560475
NANOSATC-BR1            
1 40024U 14033Q   24277.51482167  .00030046  00000+0  19894-2 0  9992
2 40024  98.0742 254.4555 0007299 141.2173 218.9578 15.07250508559549
QB50P1                  
1 40025U 14033R   24277.41292824  .00021503  00000+0  16107-2 0  9993
2 40025  98.0539 242.0057 0012671 162.7302 197.4355 15.02662596559112
QB50P2                  
1 40032U 14033Y   24277.41445273  .00020911  00000+0  16295-2 0  9999
2 40032  98.0147 232.9432 0011691 115.7791 244.4640 15.01174026558890
PERSEUS-M2              
1 40037U 14033AD  24277.55101756  .00008326  00000+0  83644-3 0  9993
2 40037  97.9297 208.7976 0012387 189.7827 170.3152 14.91467204557971
PERSEUS-M1              
1 40039U 14033AF  24277.52365718  .00008178  00000+0  82510-3 0  9998
2 40039  97.9076 204.5090 0012121 189.4980 170.6010 14.91302215557822
POLYITAN-1              
1 40042U 14033AJ  24277.38016118  .00030817  00000+0  20709-2 0  9999
2 40042  98.0824 246.4528 0015014 120.3706 239.9007 15.06623598559109
TIGRISAT                
1 40043U 14033AK  24277.42095050  .00008678  00000+0  11225-2 0  9990
2 40043  97.7075  75.6309 0053285 311.4399  48.2242 14.80121432553462
AEROCUBE 6A             
1 40045U 14033AM  24277.44133021  .00018500  00000+0  20792-2 0  9999
2 40045  97.6768  86.8599 0047506 285.8261  73.7720 14.85935077553858
AEROCUBE 6B             
1 40046U 14033AN  24277.41179133  .00020306  00000+0  22318-2 0  9994
2 40046  97.6733  85.6378 0046183 280.6300  78.9717 14.86868369553910
